[{"OBJECT_NAME":"OBJECT B","OBJECT_ID":"2022-023B","EPOCH":"2026-03-09T22:47:53.401632","MEAN_MOTION":15.18262382,"ECCENTRICITY":0.00937159,"INCLINATION":63.476,"RA_OF_ASC_NODE":246.6999,"ARG_OF_PERICENTER":346.6129,"MEAN_ANOMALY":13.2499,"EPHEMERIS_TYPE":0,"CLASSIFICATION_TYPE":"U","NORAD_CAT_ID":51947,"ELEMENT_SET_NO":999,"REV_AT_EPOCH":22265,"BSTAR":0.00086643699,"MEAN_MOTION_DOT":0.00019848,"MEAN_MOTION_DDOT":0},{"OBJECT_NAME":"STARLINK-32607","OBJECT_ID":"2024-210U","EPOCH":"2026-03-09T12:44:21.402528","MEAN_MOTION":15.27575557,"ECCENTRICITY":0.00013494,"INCLINATION":43.0027,"RA_OF_ASC_NODE":180.8898,"ARG_OF_PERICENTER":270.9925,"MEAN_ANOMALY":89.0772,"EPHEMERIS_TYPE":0,"CLASSIFICATION_TYPE":"U","NORAD_CAT_ID":61977,"ELEMENT_SET_NO":999,"REV_AT_EPOCH":7489,"BSTAR":0.0008081234,"MEAN_MOTION_DOT":0.00022039,"MEAN_MOTION_DDOT":0}]
